GLOBALSTAR M067         
1 32263U 07048A   24123.36598883 -.00000091  00000+0  45704-4 0  9991
2 32263  51.9703 158.0019 0001008 183.2989 190.0481 12.40643415758492
GLOBALSTAR M070         
1 32264U 07048B   24123.49034681 -.00000068  00000+0  20227-3 0  9993
2 32264  51.9749 299.6250 0000501 106.7598 271.2672 12.62291352761801
GLOBALSTAR M066         
1 32265U 07048C   24123.30595755 -.00000083  00000+0  11750-3 0  9996
2 32265  51.9655 162.1714 0000382 169.5542 270.6130 12.62261562764041
GLOBALSTAR M068         
1 32266U 07048D   24123.46516103 -.00000051  00000+0  29415-3 0  9996
2 32266  51.9861 114.2346 0000906 327.6754 202.9249 12.62787037765662
GLOBALSTAR M079         
1 37188U 10054A   24123.51927161 -.00000076  00000+0  15546-3 0  9998
2 37188  52.0041 309.9255 0001047 104.1247 274.3175 12.62269171624597
GLOBALSTAR M074         
1 37189U 10054B   24123.46555977 -.00000074  00000+0  16868-3 0  9991
2 37189  52.0020 309.4760 0000776 102.0840 271.4730 12.62267998625192
GLOBALSTAR M076         
1 37190U 10054C   24123.28884874 -.00000057  00000+0  25840-3 0  9995
2 37190  52.0032 310.1458 0000996 130.8934  40.5749 12.62277936624880
GLOBALSTAR M077         
1 37191U 10054D   24123.57221017 -.00000084  00000+0  10926-3 0  9991
2 37191  52.0067 266.0220 0000653 121.7520 316.7327 12.62272309625290
